{
  "type": "FeatureCollection",
  "features": [
    {
      "type": "Feature",
      "properties": {
        "norad_id": 36711,
        "name": "FENGYUN 1C DEB",
        "group": "fengyun-1c-debris",
        "lat": -78.96200713438195,
        "lon": 111.61569877413656,
        "alt_km": 730.826732583916,
        "timestamp": "2025-12-15T19:00:45.645270+00:00",
        "meta_object_name": "FENGYUN 1C DEB",
        "meta_object_id": "1999-025EAH",
        "meta_epoch": "2025-11-29T18:49:32.545344",
        "meta_mean_motion": 14.42080972,
        "meta_eccentricity": 0.01000486,
        "meta_inclination": 100.8061,
        "meta_ra_of_asc_node": 349.6584,
        "meta_arg_of_pericenter": 244.1532,
        "meta_mean_anomaly": 114.9305,
        "meta_ephemeris_type": 0,
        "meta_classification_type": "U",
        "meta_norad_cat_id": 36711,
        "meta_element_set_no": 999,
        "meta_rev_at_epoch": 64124,
        "meta_bstar": 0.0024295961,
        "meta_mean_motion_dot": 8.419e-05,
        "meta_mean_motion_ddot": 0,
        "tle_line1": "1 36711U 99025EAH 25333.78440446  .00008419  00000+0  24296-2 0  9992",
        "tle_line2": "2 36711 100.8061 349.6584 0100048 244.1532 114.9305 14.42080972641246"
      },
      "geometry": {
        "type": "Point",
        "coordinates": [
          111.61569877413656,
          -78.96200713438195
        ]
      }
    },
    {
      "type": "Feature",
      "properties": {
        "norad_id": 36716,
        "name": "FENGYUN 1C DEB",
        "group": "fengyun-1c-debris",
        "lat": 74.54956946570296,
        "lon": -127.22073400047016,
        "alt_km": 1013.0288870805989,
        "timestamp": "2025-12-15T19:00:45.645280+00:00",
        "meta_object_name": "FENGYUN 1C DEB",
        "meta_object_id": "1999-025EAN",
        "meta_epoch": "2025-12-10T12:22:25.648032",
        "meta_mean_motion": 13.88411976,
        "meta_eccentricity": 0.0148045,
        "meta_inclination": 99.2282,
        "meta_ra_of_asc_node": 263.5873,
        "meta_arg_of_pericenter": 234.8718,
        "meta_mean_anomaly": 123.849,
        "meta_ephemeris_type": 0,
        "meta_classification_type": "U",
        "meta_norad_cat_id": 36716,
        "meta_element_set_no": 999,
        "meta_rev_at_epoch": 62900,
        "meta_bstar": 0.00035629,
        "meta_mean_motion_dot": 4.21e-06,
        "meta_mean_motion_ddot": 0,
        "tle_line1": "1 36716U 99025EAN 25344.51557463  .00000421  00000+0  35629-3 0  9996",
        "tle_line2": "2 36716  99.2282 263.5873 0148045 234.8718 123.8490 13.88411976629008"
      },
      "geometry": {
        "type": "Point",
        "coordinates": [
          -127.22073400047016,
          74.54956946570296
        ]
      }
    },
    {
      "type": "Feature",
      "properties": {
        "norad_id": 36724,
        "name": "FENGYUN 1C DEB",
        "group": "fengyun-1c-debris",
        "lat": -8.637289539889549,
        "lon": 23.21979771388905,
        "alt_km": 882.2882490995344,
        "timestamp": "2025-12-15T19:00:45.645290+00:00",
        "meta_object_name": "FENGYUN 1C DEB",
        "meta_object_id": "1999-025EAW",
        "meta_epoch": "2025-12-10T01:02:55.934016",
        "meta_mean_motion": 14.25243591,
        "meta_eccentricity": 0.01036768,
        "meta_inclination": 99.4684,
        "meta_ra_of_asc_node": 15.5672,
        "meta_arg_of_pericenter": 205.2556,
        "meta_mean_anomaly": 186.4891,
        "meta_ephemeris_type": 0,
        "meta_classification_type": "U",
        "meta_norad_cat_id": 36724,
        "meta_element_set_no": 999,
        "meta_rev_at_epoch": 57434,
        "meta_bstar": 0.0025842278,
        "meta_mean_motion_dot": 6.383e-05,
        "meta_mean_motion_ddot": 0,
        "tle_line1": "1 36724U 99025EAW 25344.04370294  .00006383  00000+0  25842-2 0  9996",
        "tle_line2": "2 36724  99.4684  15.5672 0103676 205.2556 186.4891 14.25243591574344"
      },
      "geometry": {
        "type": "Point",
        "coordinates": [
          23.21979771388905,
          -8.637289539889549
        ]
      }
    },
    {
      "type": "Feature",
      "properties": {
        "norad_id": 36729,
        "name": "FENGYUN 1C DEB",
        "group": "fengyun-1c-debris",
        "lat": -59.62670047503404,
        "lon": 136.3404933967466,
        "alt_km": 832.7671275979255,
        "timestamp": "2025-12-15T19:00:45.645299+00:00",
        "meta_object_name": "FENGYUN 1C DEB",
        "meta_object_id": "1999-025EBB",
        "meta_epoch": "2025-12-14T16:19:54.050880",
        "meta_mean_motion": 14.10319018,
        "meta_eccentricity": 0.00453502,
        "meta_inclination": 98.7079,
        "meta_ra_of_asc_node": 330.4233,
        "meta_arg_of_pericenter": 250.5126,
        "meta_mean_anomaly": 109.1143,
        "meta_ephemeris_type": 0,
        "meta_classification_type": "U",
        "meta_norad_cat_id": 36729,
        "meta_element_set_no": 999,
        "meta_rev_at_epoch": 87279,
        "meta_bstar": 0.00035416011,
        "meta_mean_motion_dot": 5.91e-06,
        "meta_mean_motion_ddot": 0,
        "tle_line1": "1 36729U 99025EBB 25348.68048670  .00000591  00000+0  35416-3 0  9999",
        "tle_line2": "2 36729  98.7079 330.4233 0045350 250.5126 109.1143 14.10319018872795"
      },
      "geometry": {
        "type": "Point",
        "coordinates": [
          136.3404933967466,
          -59.62670047503404
        ]
      }
    },
    {
      "type": "Feature",
      "properties": {
        "norad_id": 36734,
        "name": "FENGYUN 1C DEB",
        "group": "fengyun-1c-debris",
        "lat": 8.353422072303529,
        "lon": -141.869164174073,
        "alt_km": 786.9794483182641,
        "timestamp": "2025-12-15T19:00:45.645310+00:00",
        "meta_object_name": "FENGYUN 1C DEB",
        "meta_object_id": "1999-025EBG",
        "meta_epoch": "2025-12-13T14:00:04.416480",
        "meta_mean_motion": 14.25866411,
        "meta_eccentricity": 0.00362904,
        "meta_inclination": 99.0563,
        "meta_ra_of_asc_node": 34.5076,
        "meta_arg_of_pericenter": 216.8146,
        "meta_mean_anomaly": 143.054,
        "meta_ephemeris_type": 0,
        "meta_classification_type": "U",
        "meta_norad_cat_id": 36734,
        "meta_element_set_no": 999,
        "meta_rev_at_epoch": 82746,
        "meta_bstar": 0.0020862953,
        "meta_mean_motion_dot": 4.956e-05,
        "meta_mean_motion_ddot": 0,
        "tle_line1": "1 36734U 99025EBG 25347.58338445  .00004956  00000+0  20863-2 0  9993",
        "tle_line2": "2 36734  99.0563  34.5076 0036290 216.8146 143.0540 14.25866411827462"
      },
      "geometry": {
        "type": "Point",
        "coordinates": [
          -141.869164174073,
          8.353422072303529
        ]
      }
    },
    {
      "type": "Feature",
      "properties": {
        "norad_id": 36736,
        "name": "FENGYUN 1C DEB",
        "group": "fengyun-1c-debris",
        "lat": -80.61430053906774,
        "lon": 173.58164367071845,
        "alt_km": 845.143355610353,
        "timestamp": "2025-12-15T19:00:45.645320+00:00",
        "meta_object_name": "FENGYUN 1C DEB",
        "meta_object_id": "1999-025EBJ",
        "meta_epoch": "2025-12-14T11:26:49.818336",
        "meta_mean_motion": 14.25485551,
        "meta_eccentricity": 0.00609772,
        "meta_inclination": 98.8057,
        "meta_ra_of_asc_node": 61.9446,
        "meta_arg_of_pericenter": 135.284,
        "meta_mean_anomaly": 225.3279,
        "meta_ephemeris_type": 0,
        "meta_classification_type": "U",
        "meta_norad_cat_id": 36736,
        "meta_element_set_no": 999,
        "meta_rev_at_epoch": 88640,
        "meta_bstar": 0.0018219209,
        "meta_mean_motion_dot": 4.347e-05,
        "meta_mean_motion_ddot": 0,
        "tle_line1": "1 36736U 99025EBJ 25348.47696549  .00004347  00000+0  18219-2 0  9992",
        "tle_line2": "2 36736  98.8057  61.9446 0060977 135.2840 225.3279 14.25485551886402"
      },
      "geometry": {
        "type": "Point",
        "coordinates": [
          173.58164367071845,
          -80.61430053906774
        ]
      }
    },
    {
      "type": "Feature",
      "properties": {
        "norad_id": 36743,
        "name": "FENGYUN 1C DEB",
        "group": "fengyun-1c-debris",
        "lat": -23.815597206882227,
        "lon": 41.892637389059225,
        "alt_km": 770.1067016709003,
        "timestamp": "2025-12-15T19:00:45.645330+00:00",
        "meta_object_name": "FENGYUN 1C DEB",
        "meta_object_id": "1999-025EBR",
        "meta_epoch": "2025-12-14T09:31:04.848960",
        "meta_mean_motion": 14.29108499,
        "meta_eccentricity": 0.00472288,
        "meta_inclination": 98.6561,
        "meta_ra_of_asc_node": 36.6518,
        "meta_arg_of_pericenter": 7.8256,
        "meta_mean_anomaly": 352.3652,
        "meta_ephemeris_type": 0,
        "meta_classification_type": "U",
        "meta_norad_cat_id": 36743,
        "meta_element_set_no": 999,
        "meta_rev_at_epoch": 60761,
        "meta_bstar": 0.0014190202,
        "meta_mean_motion_dot": 3.598e-05,
        "meta_mean_motion_ddot": 0,
        "tle_line1": "1 36743U 99025EBR 25348.39658390  .00003598  00000+0  14190-2 0  9994",
        "tle_line2": "2 36743  98.6561  36.6518 0047228   7.8256 352.3652 14.29108499607613"
      },
      "geometry": {
        "type": "Point",
        "coordinates": [
          41.892637389059225,
          -23.815597206882227
        ]
      }
    }
  ]
}